#	TYPE	Label	Institution name	DE label	Acronym	City	Zip Code	country	Institute Website	Parent organization	ROR ID
ID	TYPE	A rdfs:label@en	I http://purl.obolibrary.org/obo/IAO_0000235	A rdfs:label@de	A http://purls.helmholtz-metadaten.de/mwo/MWO_0001143	I http://purl.obolibrary.org/obo/BFO_0000171	I http://purl.obolibrary.org/obo/IAO_0000235	I http://purl.obolibrary.org/obo/BFO_0000171	I http://purl.obolibrary.org/obo/IAO_0000235	I https://nfdi.fiz-karlsruhe.de/ontology/NFDI_0000182	I https://nfdi.fiz-karlsruhe.de/ontology/NFDI_0001006
https://nfdi.fiz-karlsruhe.de/matwerk/msekg/17451394390861	http://purl.obolibrary.org/obo/OBI_0000245	Max Planck Institute for Iron Research	Max Planck Institute for Iron Research_name_	Max-Planck-Institut für Eisenforschung	MPIE	Dusseldorf	40237	Germany	url 1	Max-Planck-Gesellschaft	ror 1
https://nfdi.fiz-karlsruhe.de/matwerk/msekg/17451394390862	http://purl.obolibrary.org/obo/OBI_0000245	Institute of Applied Mechanics, Stuttgart Center for Simulation Science	Institute of Applied Mechanics, Stuttgart Center for Simulation Science_name_	Institut für Mechanik, Stuttgarter Zentrum für Simulationswissenschaft	MIB, SC SimTech	Stuttgart	70569	Germany	url 2	University of Stuttgart	ror 2
https://nfdi.fiz-karlsruhe.de/matwerk/msekg/17451394390863	http://purl.obolibrary.org/obo/OBI_0000245	Federal Institute For Materials Research and Testing	Federal Institute For Materials Research and Testing_name_	Bundesanstalt für Materialforschung und -prüfung	BAM	Berlin	12205	Germany	url 3		ror 3
https://nfdi.fiz-karlsruhe.de/matwerk/msekg/17451394390864	http://purl.obolibrary.org/obo/OBI_0000245	Institute of Materials Science	Institute of Materials Science_name_	Institut für Materialwissenschaft		Kiel	24143	Germany	url 4	Christian-Albrechts-Universität zu Kiel	ror 4
https://nfdi.fiz-karlsruhe.de/matwerk/msekg/17451394390865	http://purl.obolibrary.org/obo/OBI_0000245	FIZ Karlsruhe - Leibniz Institute for Information Infrastructure	FIZ Karlsruhe - Leibniz Institute for Information Infrastructure_name_	FIZ Karlsruhe - Leibniz-Institut für Informationsinfrastruktur	FIZ Karlsruhe	Eggenstein-Leopoldshafen	76344	Germany	url 5	Leibniz-Gemeinschaft	ror 5
https://nfdi.fiz-karlsruhe.de/matwerk/msekg/17451394390866	http://purl.obolibrary.org/obo/OBI_0000245	Forschungszentrum Jülich, Materials Data Science and Informatics (IAS9)	Forschungszentrum Jülich, Materials Data Science and Informatics (IAS9)_name_		FZJ	Aachen	52068	Germany	url 6	Helmholtz-Gemeinschaft	ror 6
https://nfdi.fiz-karlsruhe.de/matwerk/msekg/17451394390867	http://purl.obolibrary.org/obo/OBI_0000245	Interdisciplinary Centre for Advanced Materials Simulation	Interdisciplinary Centre for Advanced Materials Simulation_name_		ICAMS	Bochum	44801	Germany	url 7	Ruhr-Universität Bochum	ror 7
https://nfdi.fiz-karlsruhe.de/matwerk/msekg/17451394390868	http://purl.obolibrary.org/obo/OBI_0000245	Institute for physical metallurgy and materials physics	Institute for physical metallurgy and materials physics_name_	Institut für Metallkunde und Materialphysik	IMM	Aachen	52062	Germany	url 8	RWTH Aachen University	ror 8
https://nfdi.fiz-karlsruhe.de/matwerk/msekg/17451394390869	http://purl.obolibrary.org/obo/OBI_0000245	Institute for Lightweight Design with Hybrid Systems	Institute for Lightweight Design with Hybrid Systems_name_	Institut für Leichtbau mit Hybridsystemen	ILH	Paderborn	33098	Germany	url 9	University of Paderborn	ror 9
https://nfdi.fiz-karlsruhe.de/matwerk/msekg/174513943908610	http://purl.obolibrary.org/obo/OBI_0000245	Rechenzentrum der Christian-Albrechts-Universität	Rechenzentrum der Christian-Albrechts-Universität_name_		RZ	Kiel	24118	Germany	url 10	Christian-Albrechts-Universität zu Kiel	ror 4
https://nfdi.fiz-karlsruhe.de/matwerk/msekg/174513943908611	http://purl.obolibrary.org/obo/OBI_0000245	Institute of Materials Science - Darmstadt	Institute of Materials Science - Darmstadt_name_	Institut für Materialwissenschaft		Darmstadt	64287	Germany	url 11	Technische Universität Darmstadt	ror 10
https://nfdi.fiz-karlsruhe.de/matwerk/msekg/174513943908612	http://purl.obolibrary.org/obo/OBI_0000245	Institute of Applied Mechanics	Institute of Applied Mechanics_name_	Institut für Technische Mechanik	ITM	Clausthal-Zellerfeld	D-38678	Germany	url 12	Technische Universität Clausthal	ror 11
https://nfdi.fiz-karlsruhe.de/matwerk/msekg/174513943908613	http://purl.obolibrary.org/obo/OBI_0000245	Institute of Biology II	Institute of Biology II_name_	Institut für Biologie II		Freiburg	79104	Germany	url 13	Albert-Ludwigs-University of Freiburg	ror 12
https://nfdi.fiz-karlsruhe.de/matwerk/msekg/174513943908614	http://purl.obolibrary.org/obo/OBI_0000245	Department of Microsystems Engineering	Department of Microsystems Engineering_name_	Institut für Mikrosystemtechnik	IMTEK	Freiburg	79104	Germany	url 14	Albert-Ludwigs-University of Freiburg	ror 12
https://nfdi.fiz-karlsruhe.de/matwerk/msekg/174513943908615	http://purl.obolibrary.org/obo/OBI_0000245	Fraunhofer Institute for Mechanics of Materials	Fraunhofer Institute for Mechanics of Materials_name_	Fraunhofer-Institut für Werkstoffmechanik	IWM	Freiburg	79108	Germany	url 15	Fraunhofer-Gesellschaft	ror 13
https://nfdi.fiz-karlsruhe.de/matwerk/msekg/174513943908616	http://purl.obolibrary.org/obo/OBI_0000245	Institute of Engineering Mechanics	Institute of Engineering Mechanics_name_	Institut für Technische Mechanik (ITM)	ITM	Karlsruhe	76131	Germany	url 16	Karlsruhe Institute of Technology	ror 14
https://nfdi.fiz-karlsruhe.de/matwerk/msekg/174513943908617	http://purl.obolibrary.org/obo/OBI_0000245	Fraunhofer Institute for Microstructure of Materials and Systems	Fraunhofer Institute for Microstructure of Materials and Systems_name_	Fraunhofer-Institut für Mikrostruktur von Werkstoffen und Systemen	IMWS	Halle (Saale)	6120	Germany	url 17	Fraunhofer-Gesellschaft	ror 15
https://nfdi.fiz-karlsruhe.de/matwerk/msekg/174513943908618	http://purl.obolibrary.org/obo/OBI_0000245	Institute of Materials Science and Engineering	Institute of Materials Science and Engineering_name_	Lehrstuhl für Werkstoffkunde	WKK	Kaiserslautern	67653	Germany	url 18	TU Kaiserslautern	ror 16
https://nfdi.fiz-karlsruhe.de/matwerk/msekg/174513943908619	http://purl.obolibrary.org/obo/OBI_0000245	Department of Computer Science	Department of Computer Science_name_	Fachbereich Informatik		Kaiserslautern	67653	Germany	url 19	TU Kaiserslautern	ror 16
https://nfdi.fiz-karlsruhe.de/matwerk/msekg/174513943908620	http://purl.obolibrary.org/obo/OBI_0000245	Leibniz Institute for Materials Engineering	Leibniz Institute for Materials Engineering_name_	Leibniz-Institut für Werkstofforientierte Technologien	IWT Bremen	Bremen	28359	Germany	url 20	Leibniz-Gemeinschaft	ror 17
https://nfdi.fiz-karlsruhe.de/matwerk/msekg/174513943908621	http://purl.obolibrary.org/obo/OBI_0000245	National Metrology Institute of Germany	National Metrology Institute of Germany_name_	Physikalisch-Technische Bundesanstalt	PTB	Braunschweig	38116	Germany	url 21		ror 18
https://nfdi.fiz-karlsruhe.de/matwerk/msekg/174513943908622	http://purl.obolibrary.org/obo/OBI_0000245	Forschungszentrum Jülich-Structure and Function of Materials (IEK2)	Forschungszentrum Jülich-Structure and Function of Materials (IEK2)_name_	Forschungszentrum Jülich, Werkstoffstruktur und -eigenschaften (IEK2)	FZJ	Jülich	52428	Germany	url 22	Helmholtz-Gemeinschaft	ror 6
https://nfdi.fiz-karlsruhe.de/matwerk/msekg/174513943908623	http://purl.obolibrary.org/obo/OBI_0000245	Materialwissenschaft und Werkstofftechnik an der Universität des Saarlandes	Materialwissenschaft und Werkstofftechnik an der Universität des Saarlandes_name_		MWWT	Saarbrücken	66123	Germany	url 23	Saarland University	ror 19
https://nfdi.fiz-karlsruhe.de/matwerk/msekg/174513943908624	http://purl.obolibrary.org/obo/OBI_0000245	Lehrstuhl für Informatik	Lehrstuhl für Informatik_name_			Aachen	52062	Germany	url 24	RWTH Aachen University	ror 8
https://nfdi.fiz-karlsruhe.de/matwerk/msekg/174513943908625	http://purl.obolibrary.org/obo/OBI_0000245	German Research Center for Artificial Intelligence	German Research Center for Artificial Intelligence_name_	DEuropetsches Forschungszentrum für Künstliche Intelligenz	DFKI	Saarbrücken	D-66123	Germany	url 25		ror 20
https://nfdi.fiz-karlsruhe.de/matwerk/msekg/174513943908626	http://purl.obolibrary.org/obo/OBI_0000245	Steinbuch Centre for Computing (SCC)	Steinbuch Centre for Computing (SCC)_name_		SCC	Eggenstein-Leopoldshafen	76344	Germany	url 26	Helmholtz-Gemeinschaft	ror 14
https://nfdi.fiz-karlsruhe.de/matwerk/msekg/174513943908627	http://purl.obolibrary.org/obo/OBI_0000245	Fraunhofer Institute for Material and Beam Technology	Fraunhofer Institute for Material and Beam Technology_name_	Fraunhofer-Institut für Werkstoff- und Strahltechnik	IWS	Dresden	1277	Germany	url 27	Fraunhofer-Gesellschaft	ror 21
https://nfdi.fiz-karlsruhe.de/matwerk/msekg/174513943908628	http://purl.obolibrary.org/obo/OBI_0000245	Max-Planck-Gesellschaft	Max-Planck-Gesellschaft_name_					Germany			
https://nfdi.fiz-karlsruhe.de/matwerk/msekg/174513943908629	http://purl.obolibrary.org/obo/OBI_0000245	University of Stuttgart	Universität Stuttgart_name_	Universität Stuttgart		Stuttgart		Germany			
https://nfdi.fiz-karlsruhe.de/matwerk/msekg/174513943908630	http://purl.obolibrary.org/obo/OBI_0000245	Christian-Albrechts-Universität zu Kiel	Christian-Albrechts-Universität zu Kiel_name_		CAU	Kiel		Germany			
https://nfdi.fiz-karlsruhe.de/matwerk/msekg/174513943908631	http://purl.obolibrary.org/obo/OBI_0000245	Leibniz-Gemeinschaft	Leibniz-Gemeinschaft_name_					Germany			
https://nfdi.fiz-karlsruhe.de/matwerk/msekg/174513943908632	http://purl.obolibrary.org/obo/OBI_0000245	Helmholtz-Gemeinschaft	Helmholtz-Gemeinschaft_name_					Germany			
https://nfdi.fiz-karlsruhe.de/matwerk/msekg/174513943908633	http://purl.obolibrary.org/obo/OBI_0000245	Ruhr-Universität Bochum	Ruhr-Universität Bochum_name_		RUB	Bochum		Germany			
https://nfdi.fiz-karlsruhe.de/matwerk/msekg/174513943908634	http://purl.obolibrary.org/obo/OBI_0000245	RWTH Aachen University	RWTH Aachen University_name_		RWTH	Aachen		Germany			
https://nfdi.fiz-karlsruhe.de/matwerk/msekg/174513943908635	http://purl.obolibrary.org/obo/OBI_0000245	University of Paderborn	University of Paderborn_name_			Paderborn		Germany			
https://nfdi.fiz-karlsruhe.de/matwerk/msekg/174513943908636	http://purl.obolibrary.org/obo/OBI_0000245	Technische Universität Darmstadt	Technische Universität Darmstadt_name_	Technische Universität Darmstadt		Darmstadt		Germany			
https://nfdi.fiz-karlsruhe.de/matwerk/msekg/174513943908637	http://purl.obolibrary.org/obo/OBI_0000245	Technische Universität Clausthal	Technische Universität Clausthal_name_			Clausthal-Zellerfeld		Germany			
https://nfdi.fiz-karlsruhe.de/matwerk/msekg/174513943908638	http://purl.obolibrary.org/obo/OBI_0000245	Albert-Ludwigs-University of Freiburg	Albert-Ludwigs-University of Freiburg_name_	Albert-Ludwigs-Universität Freiburg	Uni-Freiburg	Freiburg		Germany			
https://nfdi.fiz-karlsruhe.de/matwerk/msekg/174513943908639	http://purl.obolibrary.org/obo/OBI_0000245	Fraunhofer-Gesellschaft	Fraunhofer-Gesellschaft_name_					Germany			
https://nfdi.fiz-karlsruhe.de/matwerk/msekg/174513943908640	http://purl.obolibrary.org/obo/OBI_0000245	Karlsruhe Institute of Technology	Karlsruhe Institute of Technology_name_	Karlsruher Institut für Technologie	KIT	Karlsruhe		Germany			
https://nfdi.fiz-karlsruhe.de/matwerk/msekg/174513943908641	http://purl.obolibrary.org/obo/OBI_0000245	TU Kaiserslautern	TU Kaiserslautern_name_			Kaiserslautern		Germany			
https://nfdi.fiz-karlsruhe.de/matwerk/msekg/174513943908642	http://purl.obolibrary.org/obo/OBI_0000245	Saarland University	Saarland University_name_			Saarbrücken		Germany			
https://nfdi.fiz-karlsruhe.de/matwerk/msekg/174513943908643	http://purl.obolibrary.org/obo/OBI_0000245	Humboldt-Universität zu Berlin	Humboldt-Universität zu Berlin_name_			Berlin		Germany			ror 22
https://nfdi.fiz-karlsruhe.de/matwerk/msekg/17453289699781	http://purl.obolibrary.org/obo/OBI_0000245	DEuropetsches Elektronen-Synchrotron DESY	DEuropetsches Elektronen-Synchrotron DESY_name_								
https://nfdi.fiz-karlsruhe.de/matwerk/msekg/17453289699782	http://purl.obolibrary.org/obo/OBI_0000245	Forschungszentrum Jülich	Forschungszentrum Jülich_name_								
https://nfdi.fiz-karlsruhe.de/matwerk/msekg/17453289699783	http://purl.obolibrary.org/obo/OBI_0000245	Helmholtz-Zentrum Dresden-Rossendorf	Helmholtz-Zentrum Dresden-Rossendorf_name_								
https://nfdi.fiz-karlsruhe.de/matwerk/msekg/17453289699784	http://purl.obolibrary.org/obo/OBI_0000245	GSI Helmholtzzentrum für Schwerionenforschung	GSI Helmholtzzentrum für Schwerionenforschung_name_								
https://nfdi.fiz-karlsruhe.de/matwerk/msekg/17453289699785	http://purl.obolibrary.org/obo/OBI_0000245	Heinz Maier-Leibnitz Zentrum (MLZ)	Heinz Maier-Leibnitz Zentrum (MLZ)_name_								
https://nfdi.fiz-karlsruhe.de/matwerk/msekg/17454011168981	http://purl.obolibrary.org/obo/OBI_0000245	Marvel NCCR	Marvel NCCR_name_								
https://nfdi.fiz-karlsruhe.de/matwerk/msekg/17454011168982	http://purl.obolibrary.org/obo/OBI_0000245	MAX (MAterials design at the eXascale)	MAX (MAterials design at the eXascale)_name_								
https://nfdi.fiz-karlsruhe.de/matwerk/msekg/17459121821961	http://purl.obolibrary.org/obo/OBI_0000245	NFDI MatWerk-OMS	NFDI MatWerk-OMS_name_								
https://nfdi.fiz-karlsruhe.de/matwerk/msekg/17459121821963	http://purl.obolibrary.org/obo/OBI_0000245	German Society for Materials Science	German Society for Materials Science_name_		DGM						
https://nfdi.fiz-karlsruhe.de/matwerk/msekg/17459121821964	http://purl.obolibrary.org/obo/OBI_0000245	University of Erlangen-Nuremberg	University of Erlangen-Nuremberg_name_								
https://nfdi.fiz-karlsruhe.de/matwerk/msekg/17459121821965	http://purl.obolibrary.org/obo/OBI_0000245	Max Planck Computing and Data Facility	Max Planck Computing and Data Facility_name_		MPCDF						
https://nfdi.fiz-karlsruhe.de/matwerk/msekg/17463841074141	http://purl.obolibrary.org/obo/OBI_0000245	National Institute for Materials Science (NIMS)	National Institute for Materials Science (NIMS)_name_								
https://nfdi.fiz-karlsruhe.de/matwerk/msekg/17463841074142	http://purl.obolibrary.org/obo/OBI_0000245	Cambridge Crystallographic Data Centre (CCDC)	Cambridge Crystallographic Data Centre (CCDC)_name_								